0 USA 55
1 20547U 90028B   13282.86121654  .00001878  00000-0  81756-4 0  8552
2 20547 094.0951 113.1452 0092323 232.9575 175.4117 15.18780224294411
0 USA 55
1 20547U 90028B   13284.00165772  .00001958  00000-0  85111-4 0  8568
2 20547 094.0949 113.7646 0092468 228.6779 290.9412 15.18786578294584
0 USA 55
1 20547U 90028B   13285.49202221  .00002370  00000-0  10281-3 0  8578
2 20547 094.0951 114.5735 0092364 223.1461 159.7113 15.18790099294817
0 USA 55
1 20547U 90028B   13286.55324310  .00001972  00000-0  85669-4 0  8581
2 20547 094.0948 115.1498 0092474 219.1535 202.1516 15.18795932294973
0 USA 55
1 20547U 90028B   13287.80571941  .00002736  00000-0  11843-3 0  8596
2 20547 094.0944 115.8300 0092627 214.4594 210.3347 15.18802062295169
0 USA 55
1 20547U 90028B   13289.07340177  .00003392  00000-0  14648-3 0  8609
2 20547 094.0941 116.5184 0092805 209.7360 301.6657 15.18807216295355
0 USA 55
1 20547U 90028B   13290.49934052  .00003557  00000-0  15344-3 0  8616
2 20547 094.0941 117.2927 0093030 204.3990 178.3485 15.18814013295574
0 USA 55
1 20547U 90028B   13292.10206719  .00002872  00000-0  12397-3 0  8623
2 20547 094.0944 118.1629 0093253 198.3869 301.7200 15.18824919295810
0 USA 55
1 20547U 90028B   13293.47041854  .00002883  00000-0  12432-3 0  8634
2 20547 094.0946 118.9058 0093440 193.2851 223.5968 15.18833492296021
0 USA 55
1 20547U 90028B   13294.85420265  .00003391  00000-0  14594-3 0  8641
2 20547 094.0948 119.6573 0093640 188.1649 229.8611 15.18839543296233
0 USA 55
1 20547U 90028B   13295.98601148  .00004046  00000-0  17384-3 0  8656
2 20547 094.0949 120.2718 0093828 183.9906 298.3845 15.18843077296406
